{
  "type": "FeatureCollection",
  "features": [
    {
      "type": "Feature",
      "properties": {
        "name": "suvari",
        "title": "Süvari",
        "labelPosition": "top"
      },
      "geometry": {
        "type": "Polygon",
        "coordinates": [
          [
            [27.210651671396135, 38.458926147635964],
            [27.212649298553572, 38.458926147635964],
            [27.212649298553572, 38.46147073289296],
            [27.210651671396135, 38.46147073289296],
            [27.210651671396135, 38.458926147635964]
          ]
        ]
      },
      "id": 0
    },
    {
      "type": "Feature",
      "properties": {
        "name": "metro",
        "title": "Metro",
        "closed": "No",
        "labelPosition": "bottom"
      },
      "geometry": {
        "type": "Polygon",
        "coordinates": [
          [
            [27.21322611598876, 38.45805385099774],
            [27.215683719215008, 38.45805385099774],
            [27.215683719215008, 38.45923342480194],
            [27.21322611598876, 38.45923342480194],
            [27.21322611598876, 38.45805385099774]
          ]
        ]
      },
      "id": 1
    },
    {
      "type": "Feature",
      "properties": {
        "name": "merkez",
        "title": "Merkez",
        "labelPosition": "top"
      },
      "geometry": {
        "type": "Polygon",
        "coordinates": [
          [
            [27.212894132716002, 38.45928344100889],
            [27.21454676576846, 38.45928344100889],
            [27.21454676576846, 38.46079973826056],
            [27.212894132716002, 38.46079973826056],
            [27.212894132716002, 38.45928344100889]
          ]
        ]
      },
      "id": 2
    }
  ]
}
