{
    "type": "FeatureCollection",
    "features": [
        {
            "type": "Feature",
            "properties": {
                "name": "Özkanlar"
            },
            "geometry": {
                "type": "Polygon",
                "coordinates": [
                    [
                        [
                            27.199988,
                            38.455658
                        ],
                        [
                            27.198597,
                            38.459371
                        ],
                        [
                            27.198612,
                            38.459652
                        ],
                        [
                            27.198851,
                            38.459909
                        ],
                        [
                            27.19951,
                            38.460413
                        ],
                        [
                            27.200212,
                            38.460682
                        ],
                        [
                            27.208916,
                            38.462614
                        ],
                        [
                            27.210915,
                            38.459346
                        ],
                        [
                            27.210635,
                            38.459087
                        ],
                        [
                            27.210349,
                            38.45889
                        ],
                        [
                            27.210095,
                            38.458815
                        ],
                        [
                            27.209484,
                            38.45865
                        ],
                        [
                            27.208906,
                            38.458481
                        ],
                        [
                            27.208512,
                            38.458446
                        ],
                        [
                            27.208208,
                            38.458421
                        ],
                        [
                            27.207897,
                            38.458331
                        ],
                        [
                            27.207267,
                            38.458175
                        ],
                        [
                            27.206618,
                            38.457988
                        ],
                        [
                            27.206255,
                            38.457873
                        ],
                        [
                            27.206035,
                            38.457793
                        ],
                        [
                            27.205697,
                            38.457659
                        ],
                        [
                            27.205239,
                            38.457508
                        ],
                        [
                            27.204896,
                            38.457385
                        ],
                        [
                            27.199988,
                            38.455658
                        ]
                    ]
                ]
            }
        },
        {
            "type": "Feature",
            "properties": {
                "name": "Küçükpark"
            },
            "geometry": {
                "type": "Polygon",
                "coordinates": [
                    [
                        [
                            27.209152,
                            38.462682
                        ],
                        [
                            27.211078,
                            38.459534
                        ],
                        [
                            27.211885,
                            38.458791
                        ],
                        [
                            27.212496,
                            38.458791
                        ],
                        [
                            27.214441,
                            38.459004
                        ],
                        [
                            27.216338,
                            38.459232
                        ],
                        [
                            27.216075,
                            38.460534
                        ],
                        [
                            27.21429,
                            38.461748
                        ],
                        [
                            27.212966,
                            38.463653
                        ],
                        [
                            27.211959,
                            38.463369
                        ],
                        [
                            27.211198,
                            38.463214
                        ],
                        [
                            27.209948,
                            38.46292
                        ],
                        [
                            27.209152,
                            38.462682
                        ]
                    ]
                ]
            }
        },
        {
            "type": "Feature",
            "properties": {
                "name": "Büyükpark"
            },
            "geometry": {
                "type": "Polygon",
                "coordinates": [
                    [
                        [
                            27.21593,
                            38.460664
                        ],
                        [
                            27.216279,
                            38.460712
                        ],
                        [
                            27.216573,
                            38.460791
                        ],
                        [
                            27.216837,
                            38.460878
                        ],
                        [
                            27.216973,
                            38.461025
                        ],
                        [
                            27.217247,
                            38.461342
                        ],
                        [
                            27.217637,
                            38.461803
                        ],
                        [
                            27.21785,
                            38.462104
                        ],
                        [
                            27.218022,
                            38.462382
                        ],
                        [
                            27.218169,
                            38.462655
                        ],
                        [
                            27.2182,
                            38.462797
                        ],
                        [
                            27.218124,
                            38.462964
                        ],
                        [
                            27.217982,
                            38.463079
                        ],
                        [
                            27.217851,
                            38.463218
                        ],
                        [
                            27.217835,
                            38.463412
                        ],
                        [
                            27.217982,
                            38.463698
                        ],
                        [
                            27.218394,
                            38.464257
                        ],
                        [
                            27.218516,
                            38.464456
                        ],
                        [
                            27.218349,
                            38.464448
                        ],
                        [
                            27.218095,
                            38.46444
                        ],
                        [
                            27.217883,
                            38.464436
                        ],
                        [
                            27.217725,
                            38.464428
                        ],
                        [
                            27.217614,
                            38.464373
                        ],
                        [
                            27.217442,
                            38.464293
                        ],
                        [
                            27.21727,
                            38.46421
                        ],
                        [
                            27.217057,
                            38.464111
                        ],
                        [
                            27.216657,
                            38.4639
                        ],
                        [
                            27.215767,
                            38.463456
                        ],
                        [
                            27.215559,
                            38.463337
                        ],
                        [
                            27.215235,
                            38.463166
                        ],
                        [
                            27.214936,
                            38.462988
                        ],
                        [
                            27.214617,
                            38.462817
                        ],
                        [
                            27.214326,
                            38.462622
                        ],
                        [
                            27.214184,
                            38.462531
                        ],
                        [
                            27.213925,
                            38.462348
                        ],
                        [
                            27.21431,
                            38.461769
                        ],
                        [
                            27.21593,
                            38.460664
                        ]
                    ]
                ]
            }
        },
        {
            "type": "Feature",
            "properties": {
                "name": "Bornova Merkez"
            },
            "geometry": {
                "type": "Polygon",
                "coordinates": [
                    [
                        [
                            27.218814,
                            38.466646
                        ],
                        [
                            27.218814,
                            38.46559
                        ],
                        [
                            27.220227,
                            38.46559
                        ],
                        [
                            27.220227,
                            38.466646
                        ],
                        [
                            27.218814,
                            38.466646
                        ]
                    ]
                ]
            }
        },
        {
            "type": "Feature",
            "properties": {
                "name": "Forum Bornova"
            },
            "geometry": {
                "type": "Polygon",
                "coordinates": [
                    [
                        [
                            27.206681,
                            38.450671
                        ],
                        [
                            27.206888,
                            38.449938
                        ],
                        [
                            27.207051,
                            38.449567
                        ],
                        [
                            27.207244,
                            38.449206
                        ],
                        [
                            27.207467,
                            38.448916
                        ],
                        [
                            27.207689,
                            38.448742
                        ],
                        [
                            27.20806,
                            38.44873
                        ],
                        [
                            27.208595,
                            38.448765
                        ],
                        [
                            27.209144,
                            38.448904
                        ],
                        [
                            27.209396,
                            38.448962
                        ],
                        [
                            27.209633,
                            38.448939
                        ],
                        [
                            27.209945,
                            38.448939
                        ],
                        [
                            27.210568,
                            38.448962
                        ],
                        [
                            27.210969,
                            38.449021
                        ],
                        [
                            27.211399,
                            38.449137
                        ],
                        [
                            27.211859,
                            38.449218
                        ],
                        [
                            27.212334,
                            38.449323
                        ],
                        [
                            27.21263,
                            38.449381
                        ],
                        [
                            27.213105,
                            38.449404
                        ],
                        [
                            27.21358,
                            38.449439
                        ],
                        [
                            27.213981,
                            38.449485
                        ],
                        [
                            27.214426,
                            38.449509
                        ],
                        [
                            27.214826,
                            38.449532
                        ],
                        [
                            27.214811,
                            38.449741
                        ],
                        [
                            27.214767,
                            38.450078
                        ],
                        [
                            27.214589,
                            38.450822
                        ],
                        [
                            27.214455,
                            38.451728
                        ],
                        [
                            27.214262,
                            38.45239
                        ],
                        [
                            27.214173,
                            38.452925
                        ],
                        [
                            27.21355,
                            38.452843
                        ],
                        [
                            27.21266,
                            38.452739
                        ],
                        [
                            27.211977,
                            38.452611
                        ],
                        [
                            27.211295,
                            38.452448
                        ],
                        [
                            27.210746,
                            38.452216
                        ],
                        [
                            27.210405,
                            38.452007
                        ],
                        [
                            27.210271,
                            38.451833
                        ],
                        [
                            27.210227,
                            38.45153
                        ],
                        [
                            27.210316,
                            38.451379
                        ],
                        [
                            27.210449,
                            38.45117
                        ],
                        [
                            27.210197,
                            38.451112
                        ],
                        [
                            27.209663,
                            38.451089
                        ],
                        [
                            27.209114,
                            38.451042
                        ],
                        [
                            27.208669,
                            38.450973
                        ],
                        [
                            27.208253,
                            38.450903
                        ],
                        [
                            27.207808,
                            38.450845
                        ],
                        [
                            27.207422,
                            38.450798
                        ],
                        [
                            27.207051,
                            38.45074
                        ],
                        [
                            27.206681,
                            38.450671
                        ]
                    ]
                ]
            }
        },
        {
            "type": "Feature",
            "properties": {
                "name": "Ege Üni. Tıp Fak. Kampüsü"
            },
            "geometry": {
                "type": "Polygon",
                "coordinates": [
                    [
                        [
                            27.206705,
                            38.450775
                        ],
                        [
                            27.207384,
                            38.450866
                        ],
                        [
                            27.208267,
                            38.45098
                        ],
                        [
                            27.209353,
                            38.451124
                        ],
                        [
                            27.209868,
                            38.451162
                        ],
                        [
                            27.210333,
                            38.4512
                        ],
                        [
                            27.210197,
                            38.451345
                        ],
                        [
                            27.210149,
                            38.451588
                        ],
                        [
                            27.210178,
                            38.451892
                        ],
                        [
                            27.210372,
                            38.452097
                        ],
                        [
                            27.210605,
                            38.452272
                        ],
                        [
                            27.211022,
                            38.452424
                        ],
                        [
                            27.211657,
                            38.452611
                        ],
                        [
                            27.212035,
                            38.452695
                        ],
                        [
                            27.212627,
                            38.452801
                        ],
                        [
                            27.213248,
                            38.452885
                        ],
                        [
                            27.214228,
                            38.453006
                        ],
                        [
                            27.214994,
                            38.449534
                        ],
                        [
                            27.215252,
                            38.449516
                        ],
                        [
                            27.218085,
                            38.45001
                        ],
                        [
                            27.217852,
                            38.451659
                        ],
                        [
                            27.217468,
                            38.452957
                        ],
                        [
                            27.217303,
                            38.453549
                        ],
                        [
                            27.216964,
                            38.454446
                        ],
                        [
                            27.216672,
                            38.45538
                        ],
                        [
                            27.216546,
                            38.455639
                        ],
                        [
                            27.216411,
                            38.455722
                        ],
                        [
                            27.216158,
                            38.455905
                        ],
                        [
                            27.215945,
                            38.455988
                        ],
                        [
                            27.215731,
                            38.456095
                        ],
                        [
                            27.215566,
                            38.456163
                        ],
                        [
                            27.215489,
                            38.456292
                        ],
                        [
                            27.21544,
                            38.456452
                        ],
                        [
                            27.215479,
                            38.456619
                        ],
                        [
                            27.215557,
                            38.456733
                        ],
                        [
                            27.215625,
                            38.456877
                        ],
                        [
                            27.21576,
                            38.45712
                        ],
                        [
                            27.216058,
                            38.457668
                        ],
                        [
                            27.216272,
                            38.458283
                        ],
                        [
                            27.216126,
                            38.458351
                        ],
                        [
                            27.215874,
                            38.458329
                        ],
                        [
                            27.21534,
                            38.458298
                        ],
                        [
                            27.214913,
                            38.458298
                        ],
                        [
                            27.214525,
                            38.458275
                        ],
                        [
                            27.212406,
                            38.458196
                        ],
                        [
                            27.21191,
                            38.458155
                        ],
                        [
                            27.211084,
                            38.458094
                        ],
                        [
                            27.210735,
                            38.457966
                        ],
                        [
                            27.209885,
                            38.457667
                        ],
                        [
                            27.209372,
                            38.45753
                        ],
                        [
                            27.209045,
                            38.457427
                        ],
                        [
                            27.208619,
                            38.457231
                        ],
                        [
                            27.208227,
                            38.457043
                        ],
                        [
                            27.207834,
                            38.456864
                        ],
                        [
                            27.207529,
                            38.456727
                        ],
                        [
                            27.207234,
                            38.45659
                        ],
                        [
                            27.206836,
                            38.456296
                        ],
                        [
                            27.206575,
                            38.456039
                        ],
                        [
                            27.20652,
                            38.455877
                        ],
                        [
                            27.206433,
                            38.455638
                        ],
                        [
                            27.2064,
                            38.455347
                        ],
                        [
                            27.206378,
                            38.455177
                        ],
                        [
                            27.2064,
                            38.454886
                        ],
                        [
                            27.206411,
                            38.454468
                        ],
                        [
                            27.206444,
                            38.454058
                        ],
                        [
                            27.206496,
                            38.453398
                        ],
                        [
                            27.206496,
                            38.452937
                        ],
                        [
                            27.206496,
                            38.452459
                        ],
                        [
                            27.206518,
                            38.452031
                        ],
                        [
                            27.206606,
                            38.451073
                        ],
                        [
                            27.206602,
                            38.451074
                        ],
                        [
                            27.206705,
                            38.450775
                        ]
                    ]
                ]
            }
        },
        {
            "type": "Feature",
            "properties": {
                "name": "Kızılay Mahallesi"
            },
            "geometry": {
                "type": "Polygon",
                "coordinates": [
                    [
                        [
                            27.213938,
                            38.467634
                        ],
                        [
                            27.213724,
                            38.467914
                        ],
                        [
                            27.213423,
                            38.468249
                        ],
                        [
                            27.213074,
                            38.468535
                        ],
                        [
                            27.212661,
                            38.468858
                        ],
                        [
                            27.212122,
                            38.470134
                        ],
                        [
                            27.211715,
                            38.47043
                        ],
                        [
                            27.211105,
                            38.470703
                        ],
                        [
                            27.21,
                            38.471226
                        ],
                        [
                            27.209448,
                            38.4715
                        ],
                        [
                            27.208663,
                            38.472319
                        ],
                        [
                            27.208954,
                            38.472478
                        ],
                        [
                            27.210146,
                            38.472615
                        ],
                        [
                            27.210756,
                            38.472774
                        ],
                        [
                            27.211512,
                            38.47291
                        ],
                        [
                            27.211599,
                            38.473092
                        ],
                        [
                            27.211628,
                            38.473275
                        ],
                        [
                            27.211454,
                            38.473457
                        ],
                        [
                            27.211134,
                            38.473616
                        ],
                        [
                            27.21093,
                            38.473752
                        ],
                        [
                            27.210611,
                            38.473843
                        ],
                        [
                            27.210523,
                            38.474071
                        ],
                        [
                            27.210378,
                            38.47423
                        ],
                        [
                            27.210378,
                            38.474412
                        ],
                        [
                            27.210553,
                            38.474685
                        ],
                        [
                            27.210901,
                            38.474822
                        ],
                        [
                            27.211599,
                            38.474958
                        ],
                        [
                            27.211919,
                            38.475095
                        ],
                        [
                            27.212355,
                            38.475277
                        ],
                        [
                            27.212703,
                            38.475459
                        ],
                        [
                            27.212936,
                            38.47555
                        ],
                        [
                            27.213343,
                            38.475618
                        ],
                        [
                            27.213808,
                            38.475732
                        ],
                        [
                            27.214302,
                            38.475823
                        ],
                        [
                            27.214593,
                            38.475891
                        ],
                        [
                            27.215594,
                            38.475891
                        ],
                        [
                            27.216088,
                            38.475891
                        ],
                        [
                            27.21664,
                            38.475937
                        ],
                        [
                            27.217163,
                            38.476005
                        ],
                        [
                            27.217541,
                            38.476233
                        ],
                        [
                            27.218064,
                            38.47646
                        ],
                        [
                            27.218442,
                            38.476665
                        ],
                        [
                            27.218318,
                            38.476929
                        ],
                        [
                            27.218432,
                            38.477138
                        ],
                        [
                            27.218643,
                            38.477288
                        ],
                        [
                            27.218948,
                            38.477422
                        ],
                        [
                            27.219177,
                            38.477781
                        ],
                        [
                            27.219388,
                            38.47826
                        ],
                        [
                            27.21977,
                            38.478708
                        ],
                        [
                            27.220572,
                            38.479396
                        ],
                        [
                            27.221147,
                            38.479509
                        ],
                        [
                            27.221979,
                            38.479554
                        ],
                        [
                            27.222439,
                            38.479239
                        ],
                        [
                            27.222697,
                            38.478722
                        ],
                        [
                            27.222869,
                            38.478183
                        ],
                        [
                            27.223128,
                            38.47789
                        ],
                        [
                            27.223185,
                            38.477463
                        ],
                        [
                            27.223329,
                            38.476879
                        ],
                        [
                            27.223329,
                            38.476542
                        ],
                        [
                            27.223415,
                            38.475957
                        ],
                        [
                            27.223444,
                            38.475328
                        ],
                        [
                            27.223128,
                            38.474766
                        ],
                        [
                            27.222755,
                            38.474024
                        ],
                        [
                            27.22264,
                            38.473529
                        ],
                        [
                            27.222324,
                            38.472922
                        ],
                        [
                            27.222094,
                            38.472585
                        ],
                        [
                            27.221721,
                            38.472158
                        ],
                        [
                            27.221434,
                            38.471731
                        ],
                        [
                            27.221003,
                            38.471236
                        ],
                        [
                            27.220246,
                            38.470731
                        ],
                        [
                            27.219209,
                            38.470182
                        ],
                        [
                            27.218802,
                            38.469943
                        ],
                        [
                            27.218385,
                            38.469728
                        ],
                        [
                            27.217747,
                            38.469376
                        ],
                        [
                            27.217462,
                            38.469114
                        ],
                        [
                            27.217102,
                            38.468813
                        ],
                        [
                            27.216792,
                            38.468551
                        ],
                        [
                            27.21647,
                            38.468405
                        ],
                        [
                            27.216172,
                            38.468279
                        ],
                        [
                            27.215688,
                            38.468162
                        ],
                        [
                            27.215354,
                            38.468055
                        ],
                        [
                            27.215019,
                            38.467939
                        ],
                        [
                            27.214461,
                            38.467754
                        ],
                        [
                            27.214113,
                            38.467667
                        ],
                        [
                            27.214114,
                            38.467667
                        ],
                        [
                            27.213938,
                            38.467634
                        ]
                    ]
                ]
            }
        },
        {
            "type": "Feature",
            "properties": {
                "name": "Atatürk Mh. Varyant"
            },
            "geometry": {
                "type": "Polygon",
                "coordinates": [
                    [
                        [
                            27.205914,
                            38.467665
                        ],
                        [
                            27.208692,
                            38.470953
                        ],
                        [
                            27.203297,
                            38.469638
                        ],
                        [
                            27.204945,
                            38.467766
                        ],
                        [
                            27.205914,
                            38.467665
                        ]
                    ]
                ]
            }
        }
    ]
}